ONEWEB-0264             
1 48982U 21060R   24008.49992663  .00002546  00000+0  66292-2 0  9995
2 48982  87.9054  46.0618 0002870 105.9633 254.1815 13.16549838123689
ONEWEB-0266             
1 48984U 21060T   24008.14138595 -.00000103  00000+0 -30163-3 0  9993
2 48984  87.9056  46.1124 0001886  90.9290 269.2057 13.16731425123639
ONEWEB-0267             
1 48985U 21060U   24008.15240527  .00000061  00000+0  12668-3 0  9995
2 48985  87.9052  46.1107 0002448 113.9639 246.1748 13.16594673123638
ONEWEB-0268             
1 48986U 21060V   24008.12073635  .00000030  00000+0  43982-4 0  9997
2 48986  87.9060  46.1227 0001751 100.4151 259.7177 13.16599066123892
ONEWEB-0269             
1 48987U 21060W   24007.64576559  .00000037  00000+0  64245-4 0  9999
2 48987  87.9053  46.2393 0001751  96.3511 263.7820 13.16593398122311
ONEWEB-0270             
1 48988U 21060X   24008.49911844  .00004103  00000+0  10712-1 0  9999
2 48988  87.9059  46.0573 0002542 108.9487 251.1919 13.16485563123772
ONEWEB-0271             
1 48989U 21060Y   24008.48643759  .00004344  00000+0  11344-1 0  9995
2 48989  87.9077  46.0376 0002595 107.2364 252.9051 13.16477630123758
ONEWEB-0272             
1 48990U 21060Z   24007.59678997  .00000000  00000+0 -33737-4 0  9999
2 48990  87.9057  46.2387 0002015 105.2717 254.8637 13.16735371123591
